[
    {
        "Altitude(m)": 604969.089026302,
        "Argument of Periapsis(deg)": 0.0,
        "Eccentricity": 0.0,
        "Inclination(deg)": 60.0,
        "Latitude(deg)": -0.09256879801250809,
        "Longitude(deg)": 144.9775274956542,
        "Mean Anomaly(deg)": 0.0,
        "RAAN(deg)": 245.0,
        "Satellite Name": "Test1 1078",
        "Satellite Number": 1078,
        "Semi-Major Axis(m)": 6980739.136638005,
        "Time(s)": 0
    },
    {
        "Altitude(m)": 604900.0291629443,
        "Argument of Periapsis(deg)": 0.00010418945913296404,
        "Eccentricity": 0.0,
        "Inclination(deg)": 60.0,
        "Latitude(deg)": 0.44785677584406425,
        "Longitude(deg)": 145.24565116601352,
        "Mean Anomaly(deg)": 0.620106145461853,
        "RAAN(deg)": 244.99957995086027,
        "Satellite Name": "Test1 1078",
        "Satellite Number": 1078,
        "Semi-Major Axis(m)": 6980739.136638005,
        "Time(s)": 10
    },
    {
        "Altitude(m)": 604834.1973626964,
        "Argument of Periapsis(deg)": 0.0002083789182659281,
        "Eccentricity": 0.0,
        "Inclination(deg)": 60.0,
        "Latitude(deg)": 0.9882791215151454,
        "Longitude(deg)": 145.51382625549093,
        "Mean Anomaly(deg)": 1.240212290923655,
        "RAAN(deg)": 244.9991599017205,
        "Satellite Name": "Test1 1078",
        "Satellite Number": 1078,
        "Semi-Major Axis(m)": 6980739.136638005,
        "Time(s)": 20
    },
    {
        "Altitude(m)": 604771.6000042887,
        "Argument of Periapsis(deg)": 0.00031256837739889213,
        "Eccentricity": 0.0,
        "Inclination(deg)": 60.0,
        "Latitude(deg)": 1.5286811529185271,
        "Longitude(deg)": 145.78210715351148,
        "Mean Anomaly(deg)": 1.8603184363855083,
        "RAAN(deg)": 244.9987398525808,
        "Satellite Name": "Test1 1078",
        "Satellite Number": 1078,
        "Semi-Major Axis(m)": 6980739.136638005,
        "Time(s)": 30
    },
    {
        "Altitude(m)": 604712.2419365402,
        "Argument of Periapsis(deg)": 0.0004167578365318562,
        "Eccentricity": 0.0,
        "Inclination(deg)": 60.0,
        "Latitude(deg)": 2.0690457625078547,
        "Longitude(deg)": 146.05054881804642,
        "Mean Anomaly(deg)": 2.48042458184731,
        "RAAN(deg)": 244.99831980344103,
        "Satellite Name": "Test1 1078",
        "Satellite Number": 1078,
        "Semi-Major Axis(m)": 6980739.136638005,
        "Time(s)": 40
    },
    {
        "Altitude(m)": 604656.126478838,
        "Argument of Periapsis(deg)": 0.0005209472956648203,
        "Eccentricity": 0.0,
        "Inclination(deg)": 60.0,
        "Latitude(deg)": 2.6093558113632196,
        "Longitude(deg)": 146.31920579904818,
        "Mean Anomaly(deg)": 3.1005307273091636,
        "RAAN(deg)": 244.9978997543013,
        "Satellite Name": "Test1 1078",
        "Satellite Number": 1078,
        "Semi-Major Axis(m)": 6980739.136638005,
        "Time(s)": 50
    },
    {
        "Altitude(m)": 604603.2554223088,
        "Argument of Periapsis(deg)": 0.0006251367547977843,
        "Eccentricity": 0.0,
        "Inclination(deg)": 60.0,
        "Latitude(deg)": 3.1495941192391204,
        "Longitude(deg)": 146.5881327748474,
        "Mean Anomaly(deg)": 3.7206368727709656,
        "RAAN(deg)": 244.99747970516154,
        "Satellite Name": "Test1 1078",
        "Satellite Number": 1078,
        "Semi-Major Axis(m)": 6980739.136638005,
        "Time(s)": 60
    },
    {
        "Altitude(m)": 604553.6290317833,
        "Argument of Periapsis(deg)": 0.0007293262139307483,
        "Eccentricity": 0.0,
        "Inclination(deg)": 60.0,
        "Latitude(deg)": 3.689743454559879,
        "Longitude(deg)": 146.85738508866854,
        "Mean Anomaly(deg)": 4.340743018232819,
        "RAAN(deg)": 244.99705965602183,
        "Satellite Name": "Test1 1078",
        "Satellite Number": 1078,
        "Semi-Major Axis(m)": 6980739.136638005,
        "Time(s)": 70
    },
    {
        "Altitude(m)": 604507.2460484966,
        "Argument of Periapsis(deg)": 0.0008335156730637124,
        "Eccentricity": 0.0,
        "Inclination(deg)": 60.0,
        "Latitude(deg)": 4.229786524349774,
        "Longitude(deg)": 147.1270177724183,
        "Mean Anomaly(deg)": 4.96084916369462,
        "RAAN(deg)": 244.99663960688207,
        "Satellite Name": "Test1 1078",
        "Satellite Number": 1078,
        "Semi-Major Axis(m)": 6980739.136638005,
        "Time(s)": 80
    },
    {
        "Altitude(m)": 604464.1036935401,
        "Argument of Periapsis(deg)": 0.0009377051321966765,
        "Eccentricity": 0.0,
        "Inclination(deg)": 60.0,
        "Latitude(deg)": 4.769705964081393,
        "Longitude(deg)": 147.39708608352385,
        "Mean Anomaly(deg)": 5.580955309156474,
        "RAAN(deg)": 244.99621955774234,
        "Satellite Name": "Test1 1078",
        "Satellite Number": 1078,
        "Semi-Major Axis(m)": 6980739.136638005,
        "Time(s)": 90
    },
    {
        "Altitude(m)": 604424.1976720651,
        "Argument of Periapsis(deg)": 0.0010418945913296407,
        "Eccentricity": 0.0,
        "Inclination(deg)": 60.0,
        "Latitude(deg)": 5.3094843274292165,
        "Longitude(deg)": 147.66764604197618,
        "Mean Anomaly(deg)": 6.201061454618327,
        "RAAN(deg)": 244.99579950860257,
        "Satellite Name": "Test1 1078",
        "Satellite Number": 1078,
        "Semi-Major Axis(m)": 6980739.136638005,
        "Time(s)": 100
    },
    {
        "Altitude(m)": 604387.522178231,
        "Argument of Periapsis(deg)": 0.0011460840504626045,
        "Eccentricity": 0.0,
        "Inclination(deg)": 60.0,
        "Latitude(deg)": 5.849104075917874,
        "Longitude(deg)": 147.93875345473288,
        "Mean Anomaly(deg)": 6.821167600080129,
        "RAAN(deg)": 244.99537945946287,
        "Satellite Name": "Test1 1078",
        "Satellite Number": 1078,
        "Semi-Major Axis(m)": 6980739.136638005,
        "Time(s)": 110
    },
    {
        "Altitude(m)": 604354.0699008809,
        "Argument of Periapsis(deg)": 0.0012502735095955685,
        "Eccentricity": 0.0,
        "Inclination(deg)": 60.0,
        "Latitude(deg)": 6.38854756844619,
        "Longitude(deg)": 148.21046445325868,
        "Mean Anomaly(deg)": 7.441273745541982,
        "RAAN(deg)": 244.9949594103231,
        "Satellite Name": "Test1 1078",
        "Satellite Number": 1078,
        "Semi-Major Axis(m)": 6980739.136638005,
        "Time(s)": 120
    },
    {
        "Altitude(m)": 604323.83202999,
        "Argument of Periapsis(deg)": 0.0013544629687285324,
        "Eccentricity": 0.0,
        "Inclination(deg)": 60.0,
        "Latitude(deg)": 6.927797050674493,
        "Longitude(deg)": 148.48283603135775,
        "Mean Anomaly(deg)": 8.061379891003783,
        "RAAN(deg)": 244.99453936118337,
        "Satellite Name": "Test1 1078",
        "Satellite Number": 1078,
        "Semi-Major Axis(m)": 6980739.136638005,
        "Time(s)": 130
    },
    {
        "Altitude(m)": 604296.7982638031,
        "Argument of Periapsis(deg)": 0.0014586524278614966,
        "Eccentricity": 0.0,
        "Inclination(deg)": 60.0,
        "Latitude(deg)": 7.466834644264084,
        "Longitude(deg)": 148.75592507045477,
        "Mean Anomaly(deg)": 8.681486036465637,
        "RAAN(deg)": 244.9941193120436,
        "Satellite Name": "Test1 1078",
        "Satellite Number": 1078,
        "Semi-Major Axis(m)": 6980739.136638005,
        "Time(s)": 140
    },
    {
        "Altitude(m)": 604272.9568167367,
        "Argument of Periapsis(deg)": 0.0015628418869944607,
        "Eccentricity": 0.0,
        "Inclination(deg)": 60.0,
        "Latitude(deg)": 8.005642335948338,
        "Longitude(deg)": 149.02978887809962,
        "Mean Anomaly(deg)": 9.30159218192744,
        "RAAN(deg)": 244.9936992629039,
        "Satellite Name": "Test1 1078",
        "Satellite Number": 1078,
        "Semi-Major Axis(m)": 6980739.136638005,
        "Time(s)": 150
    },
    {
        "Altitude(m)": 604252.294428003,
        "Argument of Periapsis(deg)": 0.0016670313461274247,
        "Eccentricity": 0.0,
        "Inclination(deg)": 60.0,
        "Latitude(deg)": 8.544201966424078,
        "Longitude(deg)": 149.30448572685427,
        "Mean Anomaly(deg)": 9.921698327389292,
        "RAAN(deg)": 244.99327921376414,
        "Satellite Name": "Test1 1078",
        "Satellite Number": 1078,
        "Semi-Major Axis(m)": 6980739.136638005,
        "Time(s)": 160
    },
    {
        "Altitude(m)": 604234.7963709448,
        "Argument of Periapsis(deg)": 0.0017712208052603888,
        "Eccentricity": 0.0,
        "Inclination(deg)": 60.0,
        "Latitude(deg)": 9.082495219048871,
        "Longitude(deg)": 149.58007388071448,
        "Mean Anomaly(deg)": 10.541804472851094,
        "RAAN(deg)": 244.9928591646244,
        "Satellite Name": "Test1 1078",
        "Satellite Number": 1078,
        "Semi-Major Axis(m)": 6980739.136638005,
        "Time(s)": 170
    },
    {
        "Altitude(m)": 604220.446463092,
        "Argument of Periapsis(deg)": 0.001875410264393353,
        "Eccentricity": 0.0,
        "Inclination(deg)": 60.0,
        "Latitude(deg)": 9.62050360832562,
        "Longitude(deg)": 149.85661213484678,
        "Mean Anomaly(deg)": 11.161910618312948,
        "RAAN(deg)": 244.99243911548464,
        "Satellite Name": "Test1 1078",
        "Satellite Number": 1078,
        "Semi-Major Axis(m)": 6980739.136638005,
        "Time(s)": 180
    },
    {
        "Altitude(m)": 604209.2270769188,
        "Argument of Periapsis(deg)": 0.0019795997235263173,
        "Eccentricity": 0.0,
        "Inclination(deg)": 60.0,
        "Latitude(deg)": 10.158208468159371,
        "Longitude(deg)": 150.13416035579365,
        "Mean Anomaly(deg)": 11.782016763774802,
        "RAAN(deg)": 244.99201906634494,
        "Satellite Name": "Test1 1078",
        "Satellite Number": 1078,
        "Semi-Major Axis(m)": 6980739.136638005,
        "Time(s)": 190
    }
]